#aV2018 12 15  0  0  0.00000000     288 DD+AD WGS84 FIT  NGA
## 2031 518400.00000000   300.00000000 58467 0.0000000000000
+   31     1  2  3  5  6  7  8  9 10 11 12 13 14 15 16 17 18
+         19 20 21 22 23 24 25 26 27 28 29 30 31 32  0  0  0
+          0  0  0  0  0  0  0  0  0  0  0  0  0  0  0  0  0
+          0  0  0  0  0  0  0  0  0  0  0  0  0  0  0  0  0
+          0  0  0  0  0  0  0  0  0  0  0  0  0  0  0  0  0
++         2  2  2  2  2  2  2  2  2  2  2  2  2  2  2  2  2
++         2  2  2  2  2  2  2  2  2  2  2  2  2  2  0  0  0
++         0  0  0  0  0  0  0  0  0  0  0  0  0  0  0  0  0
++         0  0  0  0  0  0  0  0  0  0  0  0  0  0  0  0  0
++         0  0  0  0  0  0  0  0  0  0  0  0  0  0  0  0  0
%c cc cc ccc ccc cccc cccc cccc cccc ccccc ccccc ccccc ccccc
%c cc cc ccc ccc cccc cccc cccc cccc ccccc ccccc ccccc ccccc
%f  0.0000000  0.000000000  0.00000000000  0.000000000000000
%f  0.0000000  0.000000000  0.00000000000  0.000000000000000
%i    0    0    0    0      0      0      0      0         0
%i    0    0    0    0      0      0      0      0         0
/*      NGA, ST. LOUIS,MO.                                  
/*   EPHEMERIS COMPUTED FROM 2 DAYS OF DATA                 
/*   EPOCHA v3 SMOOTHER                                     
/*   G1762 IERS2010 SATAF SATAPC                            
*  2018 12 15  1 30  0.00000000
P  1   4415.265935 -17303.553787 -19726.528849   -129.066531                    
V  1  22579.373858 -10193.365044  14411.148479     -0.058853                    
P  2 -21291.873341  15441.078476   3332.964060    -85.945530                    
V  2  -4669.781895   -904.975775 -31345.456531     -0.103455                    
P  3  -6337.591992 -18776.917899 -17754.941349    169.606593                    
V  3  19736.043841  10793.416396 -18432.837437      0.032031                    
P  5 -14042.486848   8811.793551  20668.105584      0.386360                    
V  5 -22244.530396 -14465.615632  -8695.321203      0.001982                    
P  6 -24185.326182   5186.842808  -9668.604388    316.181217                    
V  6   9915.723199  -7600.644076 -28750.871510     -0.069636                    
P  7 -11617.906766 -11099.314217  21452.815140     70.397345                    
V  7  23681.891811 -12166.612207   6150.046572     -0.069834                    
P  8   6429.850851 -24350.306741   8201.089908   -125.607161                    
V  8   2132.472424  10459.735489  29733.992857     -0.013296                    
P  9  -8364.379543 -21719.863567  12744.012269    483.070343                    
V  9   3047.574887 -16186.989857 -25500.758582     -0.039094                    
P 10  23867.634345  10191.165830  -6057.054636    151.416204                    
V 10   5140.428904   6274.859276  30410.048999     -0.054288                    
P 11   5566.287487 -23157.643174 -12519.555031   -688.504395                    
V 11  11864.264347  -9939.384689  24512.657318      0.046279                    
P 12   2154.030500  17894.802072 -19766.723096    284.438295                    
V 12 -20244.476754 -13918.915744 -14779.551295     -0.029881                    
P 13 -12516.724089  19198.973019  13280.048587    -81.554746                    
V 13    756.727580 -17168.547112  25338.912276      0.011727                    
P 14  15306.308155  -3962.531648 -21013.574998    -94.621658                    
V 14  -2649.580450  27301.764602  -7152.281322      0.004867                    
P 15  -2544.344095  25720.729673   4873.155980   -336.223703                    
V 15  -4411.592231  -6415.583037  30416.636061      0.014299                    
P 16  14845.620865  -6220.083782  21052.170060     -6.694408                    
V 16  21115.883524  16744.217865  -9453.458292     -0.022098                    
P 17 -13569.747454  -7038.004818 -21329.647937    -18.500685                    
V 17   3197.720510 -27789.375923   6896.424949      0.051204                    
P 18  13500.931924 -18789.873461 -13385.696702      5.551573                    
V 18  15320.679063  -6063.129219  25000.471498      0.039637                    
P 19 -15244.676408   4101.548876 -21668.526546   -373.790745                    
V 19   3453.895729 -26527.437207  -7445.014660      0.038565                    
P 20  22197.365321  14131.766013   3968.178419    519.954826                    
V 20  -6261.758278    997.685842  30418.598010      0.004444                    
P 21  14619.904737   8991.562194  21057.163518   -287.197066                    
V 21 -21110.274272  13434.719220   9360.413557      0.066889                    
P 22   1486.684007 -16681.401905 -20390.563704   -598.833740                    
V 22  23740.574812  11916.522483  -7887.964225     -0.092706                    
P 23  -2369.556081 -25922.628840   4305.683433   -203.509022                    
V 23   3785.017525  -5065.063213 -30983.139203      0.010767                    
P 24  -8721.601652  18911.549100 -16438.693599    -59.512804                    
V 24 -19204.571762   8349.422381  20281.575235     -0.004321                    
P 25  13350.037424  19190.607203 -13032.353519   -691.343870                    
V 25 -14502.066597  -7266.326549 -25686.500545     -0.055155                    
P 26  21547.935408    140.888471  15628.933944     67.943345                    
V 26  15869.171433  12027.161851 -21817.992200      0.108234                    
P 27  11730.864464 -17141.139989  16306.848409    -32.489325                    
V 27    808.469314  20989.224163  21638.134520     -0.058757                    
P 28 -22179.170347 -13773.177550  -4014.612743    758.527985                    
V 28  -3313.067775  -5333.090422  31773.771675      0.014737                    
P 29   4707.971418  23724.533619  10951.551662    315.259802                    
V 29  -3291.939401  13625.192189 -28049.384612     -0.080731                    
P 30 -20842.267944  -3391.659768  16228.323189    -19.928029                    
V 30  17797.221226 -10512.388762  20511.011018     -0.059051                    
P 31  25011.234309  -6744.719975  -6820.021610     72.781114                    
V 31  -6735.059095   5785.892396 -29916.059981     -0.026483                    
P 32  15006.118011   4150.381859 -21489.986342   -318.259898                    
V 32  -1410.474507  27346.180150   4190.611997      0.156106                    
EOF
